[
    {
        "Altitude(m)": 710076.2847898022,
        "Argument of Periapsis(deg)": 0.011390121186627068,
        "Eccentricity": 0.0,
        "Inclination(deg)": 45.0,
        "Latitude(deg)": -25.69543131609887,
        "Longitude(deg)": 145.63292737033657,
        "Mean Anomaly(deg)": -37.55768335251912,
        "RAAN(deg)": 274.98924805854176,
        "Satellite Name": "Constellation 1 1229",
        "Satellite Number": 1229,
        "Semi-Major Axis(m)": 7083131.272910544,
        "Time(s)": 190
    },
    {
        "Altitude(m)": 710062.4551674854,
        "Argument of Periapsis(deg)": 0.011450069192872472,
        "Eccentricity": 0.0,
        "Inclination(deg)": 45.0,
        "Latitude(deg)": -25.65760024869788,
        "Longitude(deg)": 145.6814395645022,
        "Mean Anomaly(deg)": -37.49698221226929,
        "RAAN(deg)": 274.98919146937624,
        "Satellite Name": "Constellation 1 1229",
        "Satellite Number": 1229,
        "Semi-Major Axis(m)": 7083131.272910544,
        "Time(s)": 191
    },
    {
        "Altitude(m)": 710048.6271513068,
        "Argument of Periapsis(deg)": 0.01151001719911788,
        "Eccentricity": 0.0,
        "Inclination(deg)": 45.0,
        "Latitude(deg)": -25.619749949241218,
        "Longitude(deg)": 145.7299187065633,
        "Mean Anomaly(deg)": -37.43628107201935,
        "RAAN(deg)": 274.98913488021066,
        "Satellite Name": "Constellation 1 1229",
        "Satellite Number": 1229,
        "Semi-Major Axis(m)": 7083131.272910544,
        "Time(s)": 192
    },
    {
        "Altitude(m)": 710034.8007884605,
        "Argument of Periapsis(deg)": 0.011569965205363285,
        "Eccentricity": 0.0,
        "Inclination(deg)": 45.0,
        "Latitude(deg)": -25.581880461420898,
        "Longitude(deg)": 145.7783646886177,
        "Mean Anomaly(deg)": -37.37557993176936,
        "RAAN(deg)": 274.9890782910451,
        "Satellite Name": "Constellation 1 1229",
        "Satellite Number": 1229,
        "Semi-Major Axis(m)": 7083131.272910544,
        "Time(s)": 193
    },
    {
        "Altitude(m)": 710020.9761261282,
        "Argument of Periapsis(deg)": 0.01162991321160869,
        "Eccentricity": 0.0,
        "Inclination(deg)": 45.0,
        "Latitude(deg)": -25.543991828866083,
        "Longitude(deg)": 145.82677790705372,
        "Mean Anomaly(deg)": -37.314878791519526,
        "RAAN(deg)": 274.98902170187955,
        "Satellite Name": "Constellation 1 1229",
        "Satellite Number": 1229,
        "Semi-Major Axis(m)": 7083131.272910544,
        "Time(s)": 194
    },
    {
        "Altitude(m)": 710007.153211472,
        "Argument of Periapsis(deg)": 0.011689861217854095,
        "Eccentricity": 0.0,
        "Inclination(deg)": 45.0,
        "Latitude(deg)": -25.50608409514187,
        "Longitude(deg)": 145.8751582539686,
        "Mean Anomaly(deg)": -37.254177651269636,
        "RAAN(deg)": 274.9889651127139,
        "Satellite Name": "Constellation 1 1229",
        "Satellite Number": 1229,
        "Semi-Major Axis(m)": 7083131.272910544,
        "Time(s)": 195
    },
    {
        "Altitude(m)": 709993.3320916371,
        "Argument of Periapsis(deg)": 0.0117498092240995,
        "Eccentricity": 0.0,
        "Inclination(deg)": 45.0,
        "Latitude(deg)": -25.468157303750363,
        "Longitude(deg)": 145.92350578955592,
        "Mean Anomaly(deg)": -37.1934765110197,
        "RAAN(deg)": 274.9889085235484,
        "Satellite Name": "Constellation 1 1229",
        "Satellite Number": 1229,
        "Semi-Major Axis(m)": 7083131.272910544,
        "Time(s)": 196
    },
    {
        "Altitude(m)": 709979.5128137484,
        "Argument of Periapsis(deg)": 0.011809757230344905,
        "Eccentricity": 0.0,
        "Inclination(deg)": 45.0,
        "Latitude(deg)": -25.430211498130596,
        "Longitude(deg)": 145.9718205740079,
        "Mean Anomaly(deg)": -37.132775370769814,
        "RAAN(deg)": 274.9888519343828,
        "Satellite Name": "Constellation 1 1229",
        "Satellite Number": 1229,
        "Semi-Major Axis(m)": 7083131.272910544,
        "Time(s)": 197
    },
    {
        "Altitude(m)": 709965.6954249085,
        "Argument of Periapsis(deg)": 0.011869705236590313,
        "Eccentricity": 0.0,
        "Inclination(deg)": 45.0,
        "Latitude(deg)": -25.392246721658392,
        "Longitude(deg)": 146.0201026675156,
        "Mean Anomaly(deg)": -37.07207423051998,
        "RAAN(deg)": 274.9887953452172,
        "Satellite Name": "Constellation 1 1229",
        "Satellite Number": 1229,
        "Semi-Major Axis(m)": 7083131.272910544,
        "Time(s)": 198
    },
    {
        "Altitude(m)": 709951.8799721993,
        "Argument of Periapsis(deg)": 0.011929653242835719,
        "Eccentricity": 0.0,
        "Inclination(deg)": 45.0,
        "Latitude(deg)": -25.354263017646655,
        "Longitude(deg)": 146.0683521302684,
        "Mean Anomaly(deg)": -37.01137309027004,
        "RAAN(deg)": 274.9887387560517,
        "Satellite Name": "Constellation 1 1229",
        "Satellite Number": 1229,
        "Semi-Major Axis(m)": 7083131.272910544,
        "Time(s)": 199
    }
]